ORBCOMM FM37            
1 33064U 08031E   25289.60246243  .00002223  00000+0  31661-3 0  9999
2 33064  48.4375 126.2412 0005445 182.0996 233.5243 14.80251007932037
ORBCOMM FM40            
1 33065U 08031F   25289.59823667  .00003399  00000+0  44362-3 0  9996
2 33065  48.4394 108.2142 0006741 196.2539 238.4757 14.82647937932171
VESSELSAT 1             
1 37840U 11058C   25288.57303808  .00000405  00000+0  76522-4 0  9990
2 37840  19.9617  85.4143 0013724  70.8443 289.3446 14.11379807723330
ORBCOMM FM109           
1 40086U 14040A   25289.04578038  .00001155  00000+0  28335-3 0  9993
2 40086  47.0023 165.4216 0001512 194.1152 165.9692 14.58389307598708
ORBCOMM FM107           
1 40087U 14040B   25289.34213400  .00000805  00000+0  20823-3 0  9991
2 40087  47.0041 164.9354 0000624 122.1674 237.9273 14.58463740598821
ORBCOMM FM106           
1 40088U 14040C   25289.24864333  .00001561  00000+0  28980-3 0  9990
2 40088  47.0616 337.7475 0017708 269.5163  90.3698 14.69786296601287
ORBCOMM FM111           
1 40089U 14040D   25289.39140889  .00003357  00000+0  39076-3 0  9993
2 40089  46.9998 170.6933 0028963  53.0840 307.2705 14.87132651608269
ORBCOMM FM104           
1 40090U 14040E   25289.46427192  .00000960  00000+0  24966-3 0  9997
2 40090  47.0046 199.4337 0016143  36.9191 323.2803 14.56855210598309
